NORAD_CAT_ID,OBJECT_NAME,OBJECT_TYPE,EPOCH,MEAN_MOTION,ECCENTRICITY,INCLINATION,RA_OF_ASC_NODE,ARG_OF_PERICENTER,MEAN_ANOMALY,BSTAR,MEAN_MOTION_DOT,MEAN_MOTION_DDOT,TLE_LINE0,TLE_LINE1,TLE_LINE2,SEMIMAJOR_AXIS,PERIOD,APOGEE,PERIGEE,DECAYED
55754.0,STARLINK-5612,PAYLOAD,2024-07-07 20:18:52,14.98335062,0.0002967,70.0011,342.0047,271.0135,89.0685,9.5935e-05,1.052e-05,0.0,0 STARLINK-5612,1 55754U 23028P   24189.84644128  .00001052  00000-0  95935-4 0  9995,2 55754  70.0011 342.0047 0002967 271.0135  89.0685 14.98335062 74693,6950.177,96.107,574.104,569.98,0.0
55754.0,STARLINK-5612,PAYLOAD,2024-07-08 13:56:21,14.98331343,0.0002924,70.0013,340.1532,271.1651,88.9173,4.8841e-05,4.9e-06,0.0,0 STARLINK-5612,1 55754U 23028P   24190.58080374  .00000490  00000-0  48841-4 0  9994,2 55754  70.0013 340.1532 0002924 271.1651  88.9173 14.98331343 74801,6950.189,96.107,574.086,570.022,0.0
55754.0,STARLINK-5612,PAYLOAD,2024-07-08 20:20:53,14.98335956,0.0002923,70.0013,339.4798,271.3841,88.6984,9.4592e-05,1.036e-05,0.0,0 STARLINK-5612,1 55754U 23028P   24190.84783938  .00001036  00000-0  94592-4 0  9990,2 55754  70.0013 339.4798 0002923 271.3841  88.6984 14.98335956 74843,6950.174,96.107,574.071,570.008,0.0
55754.0,STARLINK-5612,PAYLOAD,2024-07-09 13:58:22,14.98332278,0.0002808,70.0016,337.6289,267.2735,92.8103,5.0752e-05,5.13e-06,0.0,0 STARLINK-5612,1 55754U 23028P   24191.58220147  .00000513  00000-0  50752-4 0  9999,2 55754  70.0016 337.6289 0002808 267.2735  92.8103 14.98332278 74955,6950.186,96.107,574.002,570.099,0.0
55754.0,STARLINK-5612,PAYLOAD,2024-07-09 18:46:46,14.98331476,0.0002833,70.0015,337.1238,267.6415,92.4419,3.565e-05,3.32e-06,0.0,0 STARLINK-5612,1 55754U 23028P   24191.78248209  .00000332  00000-0  35650-4 0  9999,2 55754  70.0015 337.1238 0002833 267.6415  92.4419 14.98331476 74988,6950.188,96.107,574.022,570.084,0.0
55754.0,STARLINK-5612,PAYLOAD,2024-07-10 10:48:07,14.98328759,0.0002833,70.0015,335.4406,268.7253,91.3581,-7.6719e-06,-1.84e-06,0.0,0 STARLINK-5612,1 55754U 23028P   24192.45008494 -.00000184  00000-0 -76719-5 0  9993,2 55754  70.0015 335.4406 0002833 268.7253  91.3581 14.98328759 75088,6950.197,96.107,574.031,570.093,0.0
55754.0,STARLINK-5612,PAYLOAD,2024-07-10 15:36:31,14.98328903,0.0002848,70.0014,334.9354,269.8951,90.1882,-8.0005e-06,-1.88e-06,0.0,0 STARLINK-5612,1 55754U 23028P   24192.65036500 -.00000188  00000-0 -80005-5 0  9991,2 55754  70.0014 334.9354 0002848 269.8951  90.1882 14.98328903 75112,6950.196,96.107,574.041,570.082,0.0
55754.0,STARLINK-5612,PAYLOAD,2024-07-11 14:02:24,14.98330053,0.0002927,70.0014,332.5788,270.67,89.4123,4.9512e-05,4.98e-06,0.0,0 STARLINK-5612,1 55754U 23028P   24193.58500283  .00000498  00000-0  49512-4 0  9997,2 55754  70.0014 332.5788 0002927 270.6700  89.4123 14.98330053 75250,6950.193,96.107,574.092,570.023,0.0
55754.0,STARLINK-5612,PAYLOAD,2024-07-11 17:14:39,14.98336115,0.0003029,70.0011,332.2423,270.4605,89.6207,9.9663e-05,1.097e-05,0.0,0 STARLINK-5612,1 55754U 23028P   24193.71851748  .00001097  00000-0  99663-4 0  9995,2 55754  70.0011 332.2423 0003029 270.4605  89.6207 14.98336115 75278,6950.174,96.107,574.144,569.934,0.0
55754.0,STARLINK-5612,PAYLOAD,2024-07-12 02:51:28,14.98330004,0.0003042,70.001,331.2323,271.8381,88.243,3.3223e-05,3.03e-06,0.0,0 STARLINK-5612,1 55754U 23028P   24194.11908238  .00000303  00000-0  33223-4 0  9996,2 55754  70.0010 331.2323 0003042 271.8381  88.2430 14.98330004 75337,6950.193,96.107,574.172,569.944,0.0
55754.0,STARLINK-5612,PAYLOAD,2024-07-12 14:04:25,14.98326131,0.0003109,70.0012,330.0537,269.8672,90.2131,9.0239e-05,9.84e-06,0.0,0 STARLINK-5612,1 55754U 23028P   24194.58640481  .00000984  00000-0  90239-4 0  9995,2 55754  70.0012 330.0537 0003109 269.8672  90.2131 14.98326131 75402,6950.205,96.107,574.231,569.909,0.0
55754.0,STARLINK-5612,PAYLOAD,2024-07-12 18:52:49,14.98333443,0.0003095,70.0011,329.5478,267.8563,92.2242,0.00011912,1.329e-05,0.0,0 STARLINK-5612,1 55754U 23028P   24194.78667920  .00001329  00000-0  11912-3 0  9998,2 55754  70.0011 329.5478 0003095 267.8563  92.2242 14.98333443 75431,6950.182,96.107,574.198,569.896,0.0
55754.0,STARLINK-5612,PAYLOAD,2024-07-13 02:53:29,14.98332866,0.0003074,70.0012,328.706,268.0657,92.015,1.8286e-05,1.25e-06,0.0,0 STARLINK-5612,1 55754U 23028P   24195.12048180  .00000125  00000-0  18286-4 0  9993,2 55754  70.0012 328.7060 0003074 268.0657  92.0150 14.98332866 75483,6950.184,96.107,574.186,569.913,0.0
55754.0,STARLINK-5612,PAYLOAD,2024-07-13 14:06:25,14.98333568,0.0003088,70.0013,327.5276,270.5154,89.5651,4.0823e-05,3.94e-06,0.0,0 STARLINK-5612,1 55754U 23028P   24195.58780032  .00000394  00000-0  40823-4 0  9992,2 55754  70.0013 327.5276 0003088 270.5154  89.5651 14.98333568 75550,6950.182,96.107,574.193,569.901,0.0
55754.0,STARLINK-5612,PAYLOAD,2024-07-13 18:54:49,14.98337368,0.0003129,70.0013,327.0243,268.0177,92.0624,7.5641e-05,8.1e-06,0.0,0 STARLINK-5612,1 55754U 23028P   24195.78807664  .00000810  00000-0  75641-4 0  9994,2 55754  70.0013 327.0243 0003129 268.0177  92.0624 14.98337368 75586,6950.17,96.107,574.21,569.86,0.0
55754.0,STARLINK-5612,PAYLOAD,2024-07-14 12:32:18,14.98329677,0.000314,70.0014,325.1721,269.5703,90.5096,7.386e-05,7.88e-06,0.0,0 STARLINK-5612,1 55754U 23028P   24196.52244122  .00000788  00000-0  73860-4 0  9996,2 55754  70.0014 325.1721 0003140 269.5703  90.5096 14.98329677 75693,6950.194,96.107,574.241,569.877,0.0
55754.0,STARLINK-5612,PAYLOAD,2024-07-14 14:08:26,14.98331333,0.0003051,70.0015,325.0038,271.1566,88.9243,8.1036e-05,8.74e-06,0.0,0 STARLINK-5612,1 55754U 23028P   24196.58920021  .00000874  00000-0  81036-4 0  9991,2 55754  70.0015 325.0038 0003051 271.1566  88.9243 14.98331333 75700,6950.189,96.107,574.174,569.933,0.0
55754.0,STARLINK-5612,PAYLOAD,2024-07-14 18:56:50,14.98339607,0.0003038,70.0015,324.499,270.6424,89.4387,0.00013519,1.521e-05,0.0,0 STARLINK-5612,1 55754U 23028P   24196.78947304  .00001521  00000-0  13519-3 0  9996,2 55754  70.0015 324.4990 0003038 270.6424  89.4387 14.98339607 75732,6950.163,96.106,574.14,569.917,0.0
55754.0,STARLINK-5612,PAYLOAD,2024-07-15 04:33:39,14.98325213,0.000324,70.0009,323.4891,269.5156,90.5632,-4.6386e-05,-6.46e-06,0.0,0 STARLINK-5612,1 55754U 23028P   24197.19004451 -.00000646  00000-0 -46386-4 0  9997,2 55754  70.0009 323.4891 0003240 269.5156  90.5632 14.98325213 75798,6950.208,96.107,574.325,569.821,0.0
55754.0,STARLINK-5612,PAYLOAD,2024-07-15 12:34:19,14.98333339,0.0003182,70.0008,322.6474,268.9909,91.0886,8.0487e-05,8.68e-06,0.0,0 STARLINK-5612,1 55754U 23028P   24197.52383819  .00000868  00000-0  80487-4 0  9996,2 55754  70.0008 322.6474 0003182 268.9909  91.0886 14.98333339 75840,6950.183,96.107,574.259,569.836,0.0
55754.0,STARLINK-5612,PAYLOAD,2024-07-15 14:10:27,14.98334776,0.0003227,70.0005,322.4787,269.2357,90.8433,0.00011284,1.254e-05,0.0,0 STARLINK-5612,1 55754U 23028P   24197.59059723  .00001254  00000-0  11284-3 0  9995,2 55754  70.0005 322.4787 0003227 269.2357  90.8433 14.98334776 75855,6950.178,96.107,574.286,569.8,0.0
55754.0,STARLINK-5612,PAYLOAD,2024-07-15 20:34:59,14.9834051,0.000327,70.0007,321.806,268.7283,91.3502,0.00014658,1.657e-05,0.0,0 STARLINK-5612,1 55754U 23028P   24197.85763070  .00001657  00000-0  14658-3 0  9996,2 55754  70.0007 321.8060 0003270 268.7283  91.3502 14.98340510 75894,6950.16,96.106,574.298,569.753,0.0
55754.0,STARLINK-5612,PAYLOAD,2024-07-16 04:35:40,14.98328129,0.0003103,70.0005,320.9638,262.2636,97.8171,2.8529e-05,2.47e-06,0.0,0 STARLINK-5612,1 55754U 23028P   24198.19144105  .00000247  00000-0  28529-4 0  9993,2 55754  70.0005 320.9638 0003103 262.2636  97.8171 14.98328129 75940,6950.199,96.107,574.22,569.907,0.0
55754.0,STARLINK-5612,PAYLOAD,2024-07-16 12:36:20,14.98336003,0.0003347,70.0016,320.1225,270.6745,89.4031,8.5427e-05,9.27e-06,0.0,0 STARLINK-5612,1 55754U 23028P   24198.52523477  .00000927  00000-0  85427-4 0  9998,2 55754  70.0016 320.1225 0003347 270.6745  89.4031 14.98336003 75997,6950.174,96.107,574.366,569.713,0.0
55754.0,STARLINK-5612,PAYLOAD,2024-07-16 14:12:28,14.98339687,0.0003348,70.0016,319.9541,270.8168,89.2608,0.00016475,1.874e-05,0.0,0 STARLINK-5612,1 55754U 23028P   24198.59199295  .00001874  00000-0  16475-3 0  9990,2 55754  70.0016 319.9541 0003348 270.8168  89.2608 14.98339687 76008,6950.163,96.106,574.355,569.701,0.0
55754.0,STARLINK-5612,PAYLOAD,2024-07-16 20:37:00,14.98352271,0.0003363,70.0018,319.2807,271.8418,88.2356,0.00059268,6.99e-05,0.0,0 STARLINK-5612,1 55754U 23028P   24198.85902818  .00006990  00000-0  59268-3 0  9993,2 55754  70.0018 319.2807 0003363 271.8418  88.2356 14.98352271 76041,6950.124,96.106,574.326,569.652,0.0
55754.0,STARLINK-5612,PAYLOAD,2024-07-17 04:37:41,14.98318733,0.000319,70.0021,318.4393,271.4179,88.6614,-0.0005144,-6.224e-05,0.0,0 STARLINK-5612,1 55754U 23028P   24199.19283800 -.00006224  00000-0 -51440-3 0  9990,2 55754  70.0021 318.4393 0003190 271.4179  88.6614 14.98318733 76095,6950.228,96.108,574.31,569.876,0.0
55754.0,STARLINK-5612,PAYLOAD,2024-07-17 14:14:29,14.98334556,0.0003181,70.0021,317.4289,270.6949,89.3846,0.00065758,7.763e-05,0.0,0 STARLINK-5612,1 55754U 23028P   24199.59339826  .00007763  00000-0  65758-3 0  9998,2 55754  70.0021 317.4289 0003181 270.6949  89.3846 14.98334556 76157,6950.179,96.107,574.255,569.833,0.0
55754.0,STARLINK-5612,PAYLOAD,2024-07-17 20:39:01,14.98340606,0.0003201,70.0022,316.7552,271.839,88.2402,0.0023443,0.00027999,0.0,0 STARLINK-5612,1 55754U 23028P   24199.86043910  .00027999  00000-0  23443-2 0  9991,2 55754  70.0022 316.7552 0003201 271.8390  88.2402 14.98340606 76192,6950.16,96.106,574.25,569.8,0.0
55754.0,STARLINK-5612,PAYLOAD,2024-07-17 22:15:09,14.98344871,0.0003202,70.0022,316.5868,271.6328,88.4465,0.0024673,0.00029482,0.0,0 STARLINK-5612,1 55754U 23028P   24199.92719847  .00029482  00000-0  24673-2 0  9992,2 55754  70.0022 316.5868 0003202 271.6328  88.4465 14.98344871 76201,6950.147,96.106,574.237,569.786,0.0
